start=new Date('2023-05-20T00:00:00.000Z').valueOf();
sats=[{"RCS_SIZE":"LARGE","REF_FRAME":"TEME","MEAN_ANOMALY":"273.3235","APOAPSIS":"540.452","REV_AT_EPOCH":"3705","ECCENTRICITY":"0.00010400","FILE":"3912278","TLE_LINE2":"2 53918  53.2159 236.3925 0001040  86.7876 273.3235 15.08844108 37059","EPOCH":"2023-05-19T11:24:19.217952","LAUNCH_DATE":"2022-09-24","SEMIMAJOR_AXIS":"6917.868","ARG_OF_PERICENTER":"86.7876","CENTER_NAME":"EARTH","TLE_LINE1":"1 53918U 22119AJ  23139.47522243 -.00000183  00000-0  65584-5 0  9994","GP_ID":"232161705","EPHEMERIS_TYPE":"0","MEAN_MOTION":"15.08844108","COUNTRY_CODE":"US","MEAN_MOTION_DDOT":"0.0000000000000","RA_OF_ASC_NODE":"236.3925","PERIOD":"95.437","BSTAR":"0.00000655840000","MEAN_ELEMENT_THEORY":"SGP4","DECAY_DATE":null,"OBJECT_TYPE":"PAYLOAD","NORAD_CAT_ID":"53918","INCLINATION":"53.2159","ELEMENT_SET_NO":"999","CLASSIFICATION_TYPE":"U","SITE":"AFETR","PERIAPSIS":"539.013","TIME_SYSTEM":"UTC","MEAN_MOTION_DOT":"-0.00000183","OBJECT_ID":"2022-119AJ","OBJECT_NAME":"STARLINK-5012"},{"APOAPSIS":"540.425","MEAN_ANOMALY":"269.8479","REV_AT_EPOCH":"3705","ECCENTRICITY":"0.00009930","RCS_SIZE":"LARGE","REF_FRAME":"TEME","TLE_LINE2":"2 53919  53.2160 236.3700 0000993  90.2627 269.8479 15.08842542 37053","FILE":"3912278","CENTER_NAME":"EARTH","ARG_OF_PERICENTER":"90.2627","TLE_LINE1":"1 53919U 22119AK  23139.47154101  .00000043  00000-0  20763-4 0  9992","EPHEMERIS_TYPE":"0","GP_ID":"232162455","EPOCH":"2023-05-19T11:19:01.143264","LAUNCH_DATE":"2022-09-24","SEMIMAJOR_AXIS":"6917.873","RA_OF_ASC_NODE":"236.3700","PERIOD":"95.437","MEAN_MOTION":"15.08842542","COUNTRY_CODE":"US","MEAN_MOTION_DDOT":"0.0000000000000","NORAD_CAT_ID":"53919","BSTAR":"0.00002076300000","DECAY_DATE":null,"MEAN_ELEMENT_THEORY":"SGP4","OBJECT_TYPE":"PAYLOAD","ELEMENT_SET_NO":"999","INCLINATION":"53.2160","SITE":"AFETR","CLASSIFICATION_TYPE":"U","OBJECT_NAME":"STARLINK-5023","OBJECT_ID":"2022-119AK","PERIAPSIS":"539.051","TIME_SYSTEM":"UTC","MEAN_MOTION_DOT":"0.00000043"},{"MEAN_ANOMALY":"277.2333","APOAPSIS":"540.607","REV_AT_EPOCH":"3705","ECCENTRICITY":"0.00012340","RCS_SIZE":"LARGE","REF_FRAME":"TEME","TLE_LINE2":"2 53920  53.2164 236.3266 0001234  82.8799 277.2333 15.08837347 37051","FILE":"3912278","ARG_OF_PERICENTER":"82.8799","CENTER_NAME":"EARTH","TLE_LINE1":"1 53920U 22119AL  23139.46417876 -.00000124  00000-0  10293-4 0  9992","EPHEMERIS_TYPE":"0","GP_ID":"232162178","LAUNCH_DATE":"2022-09-24","EPOCH":"2023-05-19T11:08:25.044864","SEMIMAJOR_AXIS":"6917.888","RA_OF_ASC_NODE":"236.3266","PERIOD":"95.438","MEAN_MOTION":"15.08837347","COUNTRY_CODE":"US","MEAN_MOTION_DDOT":"0.0000000000000","NORAD_CAT_ID":"53920","BSTAR":"0.00001029300000","MEAN_ELEMENT_THEORY":"SGP4","DECAY_DATE":null,"OBJECT_TYPE":"PAYLOAD","ELEMENT_SET_NO":"999","INCLINATION":"53.2164","SITE":"AFETR","CLASSIFICATION_TYPE":"U","OBJECT_NAME":"STARLINK-5025","OBJECT_ID":"2022-119AL","PERIAPSIS":"538.900","TIME_SYSTEM":"UTC","MEAN_MOTION_DOT":"-0.00000124"},{"CLASSIFICATION_TYPE":"U","SITE":"AFETR","PERIAPSIS":"539.286","TIME_SYSTEM":"UTC","MEAN_MOTION_DOT":"-0.00000341","OBJECT_ID":"2022-119AN","OBJECT_NAME":"STARLINK-5002","BSTAR":"-0.00000337520000","DECAY_DATE":null,"MEAN_ELEMENT_THEORY":"SGP4","OBJECT_TYPE":"PAYLOAD","NORAD_CAT_ID":"53922","INCLINATION":"53.2165","ELEMENT_SET_NO":"999","EPOCH":"2023-05-19T12:38:31.208640","LAUNCH_DATE":"2022-09-24","SEMIMAJOR_AXIS":"6917.920","ARG_OF_PERICENTER":"79.4388","CENTER_NAME":"EARTH","TLE_LINE1":"1 53922U 22119AN  23139.52675010 -.00000341  00000-0 -33752-5 0  9995","GP_ID":"232160954","EPHEMERIS_TYPE":"0","MEAN_MOTION":"15.08827104","COUNTRY_CODE":"US","MEAN_MOTION_DDOT":"0.0000000000000","RA_OF_ASC_NODE":"236.0064","PERIOD":"95.438","RCS_SIZE":"LARGE","REF_FRAME":"TEME","APOAPSIS":"540.284","MEAN_ANOMALY":"280.6685","REV_AT_EPOCH":"3706","ECCENTRICITY":"0.00007210","FILE":"3912278","TLE_LINE2":"2 53922  53.2165 236.0064 0000721  79.4388 280.6685 15.08827104 37062"},{"RA_OF_ASC_NODE":"236.3473","PERIOD":"95.437","MEAN_MOTION":"15.08845045","COUNTRY_CODE":"US","MEAN_MOTION_DDOT":"0.0000000000000","ARG_OF_PERICENTER":"83.7927","CENTER_NAME":"EARTH","TLE_LINE1":"1 53923U 22119AP  23139.46785567  .00001354  00000-0  10315-3 0  9999","EPHEMERIS_TYPE":"0","GP_ID":"232162205","LAUNCH_DATE":"2022-09-24","EPOCH":"2023-05-19T11:13:42.729888","SEMIMAJOR_AXIS":"6917.865","TLE_LINE2":"2 53923  53.2162 236.3473 0001221  83.7927 276.3205 15.08845045 37053","FILE":"3912278","APOAPSIS":"540.575","MEAN_ANOMALY":"276.3205","REV_AT_EPOCH":"3705","ECCENTRICITY":"0.00012210","RCS_SIZE":"LARGE","REF_FRAME":"TEME","OBJECT_NAME":"STARLINK-5004","OBJECT_ID":"2022-119AP","PERIAPSIS":"538.885","TIME_SYSTEM":"UTC","MEAN_MOTION_DOT":"0.00001354","SITE":"AFETR","CLASSIFICATION_TYPE":"U","ELEMENT_SET_NO":"999","INCLINATION":"53.2162","NORAD_CAT_ID":"53923","BSTAR":"0.00010315000000","DECAY_DATE":null,"OBJECT_TYPE":"PAYLOAD","MEAN_ELEMENT_THEORY":"SGP4"},{"NORAD_CAT_ID":"53924","BSTAR":"0.00002489900000","DECAY_DATE":null,"OBJECT_TYPE":"PAYLOAD","MEAN_ELEMENT_THEORY":"SGP4","ELEMENT_SET_NO":"999","INCLINATION":"53.2155","SITE":"AFETR","CLASSIFICATION_TYPE":"U","OBJECT_NAME":"STARLINK-5001","OBJECT_ID":"2022-119AQ","TIME_SYSTEM":"UTC","PERIAPSIS":"538.821","MEAN_MOTION_DOT":"0.00000108","REV_AT_EPOCH":"3712","APOAPSIS":"540.642","MEAN_ANOMALY":"259.9528","ECCENTRICITY":"0.00013160","RCS_SIZE":"LARGE","REF_FRAME":"TEME","TLE_LINE2":"2 53924  53.2155 231.3963 0001316 100.1613 259.9528 15.08844468 37127","FILE":"3912278","ARG_OF_PERICENTER":"100.1613","CENTER_NAME":"EARTH","GP_ID":"232161956","EPHEMERIS_TYPE":"0","TLE_LINE1":"1 53924U 22119AQ  23139.47384549  .00000108  00000-0  24899-4 0  9995","LAUNCH_DATE":"2022-09-24","EPOCH":"2023-05-19T11:22:20.250336","SEMIMAJOR_AXIS":"6917.867","PERIOD":"95.437","RA_OF_ASC_NODE":"231.3963","MEAN_MOTION":"15.08844468","MEAN_MOTION_DDOT":"0.0000000000000","COUNTRY_CODE":"US"},{"ELEMENT_SET_NO":"999","INCLINATION":"53.2168","NORAD_CAT_ID":"53925","OBJECT_TYPE":"PAYLOAD","DECAY_DATE":null,"MEAN_ELEMENT_THEORY":"SGP4","BSTAR":"0.00013778000000","OBJECT_ID":"2022-119AR","OBJECT_NAME":"STARLINK-5011","MEAN_MOTION_DOT":"0.00001906","PERIAPSIS":"539.099","TIME_SYSTEM":"UTC","SITE":"AFETR","CLASSIFICATION_TYPE":"U","TLE_LINE2":"2 53925  53.2168 235.9231 0000902  95.9157 264.1938 15.08847219 37067","FILE":"3912278","ECCENTRICITY":"0.00009020","APOAPSIS":"540.347","MEAN_ANOMALY":"264.1938","REV_AT_EPOCH":"3706","REF_FRAME":"TEME","RCS_SIZE":"LARGE","RA_OF_ASC_NODE":"235.9231","PERIOD":"95.437","COUNTRY_CODE":"US","MEAN_MOTION_DDOT":"0.0000000000000","MEAN_MOTION":"15.08847219","TLE_LINE1":"1 53925U 22119AR  23139.51199386  .00001906  00000-0  13778-3 0  9994","GP_ID":"232162678","EPHEMERIS_TYPE":"0","CENTER_NAME":"EARTH","ARG_OF_PERICENTER":"95.9157","LAUNCH_DATE":"2022-09-24","EPOCH":"2023-05-19T12:17:16.269504","SEMIMAJOR_AXIS":"6917.858"},{"CLASSIFICATION_TYPE":"U","SITE":"AFETR","PERIAPSIS":"539.115","TIME_SYSTEM":"UTC","MEAN_MOTION_DOT":"-0.00000246","OBJECT_ID":"2022-119AS","OBJECT_NAME":"STARLINK-5014","BSTAR":"0.00000261730000","DECAY_DATE":null,"MEAN_ELEMENT_THEORY":"SGP4","OBJECT_TYPE":"PAYLOAD","NORAD_CAT_ID":"53926","INCLINATION":"53.2154","ELEMENT_SET_NO":"999","LAUNCH_DATE":"2022-09-24","SEMIMAJOR_AXIS":"6917.876","EPOCH":"2023-05-19T15:52:34.517568","CENTER_NAME":"EARTH","ARG_OF_PERICENTER":"109.0832","TLE_LINE1":"1 53926U 22119AS  23139.66151062 -.00000246  00000-0  26173-5 0  9992","GP_ID":"232161454","EPHEMERIS_TYPE":"0","MEAN_MOTION":"15.08841289","COUNTRY_CODE":"US","MEAN_MOTION_DDOT":"0.0000000000000","RA_OF_ASC_NODE":"230.4357","PERIOD":"95.437","RCS_SIZE":"LARGE","REF_FRAME":"TEME","MEAN_ANOMALY":"251.0259","APOAPSIS":"540.368","REV_AT_EPOCH":"3716","ECCENTRICITY":"0.00009050","FILE":"3912278","TLE_LINE2":"2 53926  53.2154 230.4357 0000905 109.0832 251.0259 15.08841289 37165"},{"TLE_LINE2":"2 53927  53.2167 231.4544 0001226 102.7699 257.3430 15.08842609 37120","FILE":"3912278","ECCENTRICITY":"0.00012260","APOAPSIS":"540.586","MEAN_ANOMALY":"257.3430","REV_AT_EPOCH":"3712","REF_FRAME":"TEME","RCS_SIZE":"LARGE","RA_OF_ASC_NODE":"231.4544","PERIOD":"95.437","COUNTRY_CODE":"US","MEAN_MOTION_DDOT":"0.0000000000000","MEAN_MOTION":"15.08842609","TLE_LINE1":"1 53927U 22119AT  23139.48121634  .00001247  00000-0  96416-4 0  9992","EPHEMERIS_TYPE":"0","GP_ID":"232161706","CENTER_NAME":"EARTH","ARG_OF_PERICENTER":"102.7699","LAUNCH_DATE":"2022-09-24","EPOCH":"2023-05-19T11:32:57.091776","SEMIMAJOR_AXIS":"6917.872","ELEMENT_SET_NO":"999","INCLINATION":"53.2167","NORAD_CAT_ID":"53927","DECAY_DATE":null,"MEAN_ELEMENT_THEORY":"SGP4","OBJECT_TYPE":"PAYLOAD","BSTAR":"0.00009641600000","OBJECT_NAME":"STARLINK-5008","OBJECT_ID":"2022-119AT","MEAN_MOTION_DOT":"0.00001247","PERIAPSIS":"538.889","TIME_SYSTEM":"UTC","SITE":"AFETR","CLASSIFICATION_TYPE":"U"},{"OBJECT_TYPE":"PAYLOAD","DECAY_DATE":null,"MEAN_ELEMENT_THEORY":"SGP4","BSTAR":"0.00004412400000","NORAD_CAT_ID":"53928","INCLINATION":"53.2173","ELEMENT_SET_NO":"999","CLASSIFICATION_TYPE":"U","SITE":"AFETR","MEAN_MOTION_DOT":"0.00000414","TIME_SYSTEM":"UTC","PERIAPSIS":"538.901","OBJECT_NAME":"STARLINK-5009","OBJECT_ID":"2022-119AU","REF_FRAME":"TEME","RCS_SIZE":"LARGE","ECCENTRICITY":"0.00012330","REV_AT_EPOCH":"3719","MEAN_ANOMALY":"261.8892","APOAPSIS":"540.607","FILE":"3912278","TLE_LINE2":"2 53928  53.2173 226.3999 0001233  98.2240 261.8892 15.08837220 37196","EPOCH":"2023-05-19T11:20:21.287040","LAUNCH_DATE":"2022-09-24","SEMIMAJOR_AXIS":"6917.889","EPHEMERIS_TYPE":"0","GP_ID":"232162456","TLE_LINE1":"1 53928U 22119AU  23139.47246860  .00000414  00000-0  44124-4 0  9995","ARG_OF_PERICENTER":"98.2240","CENTER_NAME":"EARTH","MEAN_MOTION_DDOT":"0.0000000000000","COUNTRY_CODE":"US","MEAN_MOTION":"15.08837220","PERIOD":"95.438","RA_OF_ASC_NODE":"226.3999"}];
